1 45151U 20008W   22365.45957411 -.00000331  00000-0 -96976-3 0  9999
2 45151  87.8950 272.1364 0001811  72.6146 287.5180 13.11415802144777
1 45151U 20008W   22365.68846521 -.00000327  00000-0 -95800-3 0  9993
2 45151  87.8950 272.0910 0001808  72.5652 287.5674 13.11415319144805
1 45151U 20008W   23001.45143446 -.00000185  00000-0 -55886-3 0  9994
2 45151  87.8949 271.9398 0001797  72.5003 287.6321 13.11415307144906
1 45151U 20008W   23001.75662249 -.00000202  00000-0 -60691-3 0  9994
2 45151  87.8949 271.8793 0001798  72.5170 287.6154 13.11415323144946
1 45151U 20008W   23001.98551394 -.00000212  00000-0 -63381-3 0  9997
2 45151  87.8949 271.8339 0001789  72.4683 287.6641 13.11414783145750
1 45151U 20008W   23002.44329514  .00000047  00000-0  96181-4 0  9995
2 45151  87.8949 271.7432 0001790  72.1877 287.9446 13.11415187145033
1 45151U 20008W   23002.67218651  .00000002  00000-0 -31343-4 0  9990
2 45151  87.8949 271.6978 0001788  72.1311 288.0012 13.11414913145067
1 45151U 20008W   23003.12996816  .00000169  00000-0  43989-3 0  9998
2 45151  87.8950 271.6071 0001780  72.2285 287.9037 13.11415175145905
1 45151U 20008W   23003.43515574  .00000286  00000-0  77180-3 0  9990
2 45151  87.8949 271.5465 0001783  72.2498 287.8824 13.11415480145168
1 45151U 20008W   23004.42701632  .00000412  00000-0  11275-2 0  9995
2 45151  87.8947 271.3500 0001782  72.2628 287.8694 13.11415850145298
1 45151U 20008W   23004.42701632  .00000412  00000-0  11275-2 0  9995
2 45151  87.8947 271.3500 0001782  72.2628 287.8694 13.11415850146075
1 45151U 20008W   23004.65590734  .00000357  00000-0  97046-3 0  9998
2 45151  87.8948 271.3046 0001778  72.0435 288.0887 13.11415899145327
1 45151U 20008W   23005.49517306  .00000452  00000-0  12388-2 0  9996
2 45151  87.8949 271.1381 0001780  71.9824 288.1498 13.11416344145438
1 45151U 20008W   23005.49517306  .00000452  00000-0  12388-2 0  9996
2 45151  87.8949 271.1381 0001780  71.9824 288.1498 13.11416344146215
1 45151U 20008W   23006.48703018  .00000663  00000-0  18347-2 0  9998
2 45151  87.8949 270.9416 0001731  71.2264 288.9052 13.11417741145561
1 45151U 20008W   23007.02110794  .00000508  00000-0  13983-2 0  9991
2 45151  87.8950 270.8358 0001712  70.7686 289.3627 13.11417685146413
1 45151U 20008W   23007.17370048  .00000697  00000-0  19319-2 0  9995
2 45151  87.8948 270.8055 0001733  71.1117 289.0199 13.11418156145651
1 45151U 20008W   23007.47888705  .00000585  00000-0  16141-2 0  9998
2 45151  87.8948 270.7450 0001714  70.9290 289.2024 13.11418565145694
1 45151U 20008W   23008.08925998  .00000538  00000-0  14829-2 0  9991
2 45151  87.8949 270.6239 0001724  70.6848 289.4466 13.11418958146550
1 45151U 20008W   23008.47074305  .00000417  00000-0  11397-2 0  9994
2 45151  87.8948 270.5482 0001736  71.2010 288.9306 13.11419139145827
1 45151U 20008W   23009.15741131  .00000408  00000-0  11162-2 0  9998
2 45151  87.8947 270.4122 0001722  70.9350 289.1964 13.11419637146696
1 45151U 20008W   23009.46259770  .00000222  00000-0  59184-3 0  9996
2 45151  87.8948 270.3517 0001709  70.6817 289.4496 13.11419581145953
1 45151U 20008W   23010.22556191  .00000131  00000-0  33245-3 0  9998
2 45151  87.8950 270.2005 0001682  70.0251 290.1058 13.11420150146052
1 45151U 20008W   23010.22556191  .00000131  00000-0  33245-3 0  9998
2 45151  87.8950 270.2005 0001682  70.0251 290.1058 13.11420150146838
1 45151U 20008W   23011.44630647 -.00000291  00000-0 -85709-3 0  9993
2 45151  87.8948 269.9585 0001651  70.1453 289.9853 13.11418937146215
1 45151U 20008W   23011.44630647 -.00000291  00000-0 -85709-3 0  9993
2 45151  87.8948 269.9585 0001651  70.1453 289.9853 13.11418937146990
1 45151U 20008W   23011.67519531 -.00000258  00000-0 -76400-3 0  9997
2 45151  87.8946 269.9133 0001615  69.5889 290.5412 13.11419400146245
1 45151U 20008W   23012.66705006 -.00000451  00000-0 -13084-2 0  9994
2 45151  87.8944 269.7167 0001655  70.1494 289.9812 13.11418961146373
1 45151U 20008W   23012.66705006 -.00000451  00000-0 -13084-2 0  9994
2 45151  87.8944 269.7167 0001655  70.1494 289.9812 13.11418961147150
1 45151U 20008W   23013.43001552 -.00000437  00000-0 -12678-2 0  9997
2 45151  87.8944 269.5652 0001667  70.6876 289.4432 13.11418441146479
1 45151U 20008W   23014.11668640 -.00000683  00000-0 -19618-2 0  9994
2 45151  87.8944 269.4288 0001664  70.9737 289.1571 13.11417600147343
1 45151U 20008W   23015.41373250 -.00000612  00000-0 -17638-2 0  9990
2 45151  87.8941 269.1717 0001642  70.9306 289.1999 13.11415905146734
1 45151U 20008W   23015.41373250 -.00000612  00000-0 -17638-2 0  9990
2 45151  87.8941 269.1717 0001642  70.9306 289.1999 13.11415905147511
1 45151U 20008W   23015.94781102 -.00000458  00000-0 -13269-2 0  9991
2 45151  87.8941 269.0658 0001622  71.0449 289.0854 13.11414957146808
1 45151U 20008W   23016.40559234 -.00000274  00000-0 -81032-3 0  9992
2 45151  87.8939 268.9750 0001621  71.1548 288.9756 13.11414969146864
1 45151U 20008W   23016.71078064 -.00000298  00000-0 -87643-3 0  9993
2 45151  87.8939 268.9145 0001612  71.1339 288.9964 13.11414594147686
1 45151U 20008W   23016.93967205 -.00000327  00000-0 -95984-3 0  9991
2 45151  87.8938 268.8691 0001598  71.0303 289.0998 13.11414206146939
1 45151U 20008W   23017.39745337 -.00000079  00000-0 -25741-3 0  9990
2 45151  87.8936 268.7783 0001596  71.0224 289.1077 13.11414637146991
1 45151U 20008W   23018.08412763 -.00000024  00000-0 -10390-3 0  9995
2 45151  87.8936 268.6422 0001597  71.6479 288.4822 13.11413729147867
1 45151U 20008W   23018.23672096  .00000055  00000-0  11955-3 0  9999
2 45151  87.8936 268.6119 0001595  71.6391 288.4910 13.11414478147108
1 45151U 20008W   23018.92339463  .00000142  00000-0  36447-3 0  9993
2 45151  87.8937 268.4756 0001568  71.4528 288.6770 13.11414088147196
1 45151U 20008W   23019.38117704  .00000310  00000-0  83876-3 0  9991
2 45151  87.8936 268.3850 0001618  71.6824 288.4480 13.11413896147255
1 45151U 20008W   23019.38117704  .00000310  00000-0  83876-3 0  9991
2 45151  87.8936 268.3850 0001618  71.6824 288.4480 13.11413896148032
1 45151U 20008W   23020.37303610  .00000517  00000-0  14239-2 0  9990
2 45151  87.8938 268.1881 0001565  71.4622 288.6676 13.11416189147385
1 45151U 20008W   23020.67822437  .00000454  00000-0  12463-2 0  9993
2 45151  87.8938 268.1277 0001558  71.3684 288.7613 13.11415895148200
1 45151U 20008W   23021.89897435  .00000508  00000-0  13986-2 0  9999
2 45151  87.8936 267.8856 0001525  71.0020 289.1273 13.11416461148366
1 45151U 20008W   23023.04342499  .00000530  00000-0  14593-2 0  9993
2 45151  87.8936 267.6586 0001519  71.6153 288.5140 13.11417500148518
1 45151U 20008W   23024.11157720  .00000454  00000-0  12464-2 0  9993
2 45151  87.8936 267.4464 0001498  73.7404 286.3889 13.11418553148659
1 45151U 20008W   23024.72196986 -.00001777  00000-0 -50505-2 0  9996
2 45151  87.8930 267.3256 0001186  59.1578 300.9666 13.11402126148739
1 45151U 20008W   23025.40863165 -.00000003  00000-0 -42871-4 0  9992
2 45151  87.8930 267.1910 0001982  68.8277 291.3063 13.11416881148042
1 45151U 20008W   23025.40863165 -.00000003  00000-0 -42871-4 0  9992
2 45151  87.8930 267.1910 0001982  68.8277 291.3063 13.11416881148828
1 45151U 20008W   23025.71381529  .00000261  00000-0  70194-3 0  9997
2 45151  87.8934 267.1298 0001822  69.7030 290.4294 13.11419084148083
1 45151U 20008W   23026.09529972  .00000230  00000-0  61439-3 0  9993
2 45151  87.8935 267.0534 0001750  68.6520 291.4794 13.11417223148133
1 45151U 20008W   23026.70567498  .00003173  00000-0  89165-2 0  9990
2 45151  87.8932 266.9322 0001390  63.1042 297.0228 13.11401720148995
1 45151U 20008W   23027.16346447  .00007980  00000-0  22472-1 0  9997
2 45151  87.8931 266.8414 0001245  73.0968 287.0296 13.11379527148275
1 45151U 20008W   23027.16346447  .00007980  00000-0  22472-1 0  9997
2 45151  87.8931 266.8414 0001245  73.0968 287.0296 13.11379527149052
1 45151U 20008W   23027.69753037 -.00000399  00000-0 -11611-2 0  9995
2 45151  87.8932 266.7355 0001467  72.1848 287.9440 13.11419161149126
1 45151U 20008W   23027.92642005 -.00000437  00000-0 -12687-2 0  9990
2 45151  87.8932 266.6901 0001462  72.0665 288.0622 13.11419010148376
1 45151U 20008W   23028.61308981 -.00000511  00000-0 -14787-2 0  9995
2 45151  87.8929 266.5536 0001474  72.6138 287.5151 13.11417912148469
1 45151U 20008W   23028.91827549 -.00000506  00000-0 -14648-2 0  9994
2 45151  87.8928 266.4932 0001449  72.7492 287.3795 13.11418526148502
1 45151U 20008W   23029.07086833 -.00000470  00000-0 -13610-2 0  9993
2 45151  87.8927 266.4629 0001446  73.0020 287.1266 13.11418773149306
1 45151U 20008W   23029.91013251 -.00000523  00000-0 -15127-2 0  9994
2 45151  87.8926 266.2966 0001449  73.5093 286.6194 13.11417351148635
1 45151U 20008W   23030.13902227 -.00000461  00000-0 -13369-2 0  9997
2 45151  87.8925 266.2511 0001447  73.7772 286.3515 13.11417540149448
1 45151U 20008W   23030.21531899 -.00000486  00000-0 -14079-2 0  9995
2 45151  87.8925 266.2360 0001444  73.8023 286.3264 13.11417597148674
1 45151U 20008W   23030.90199026 -.00000493  00000-0 -14266-2 0  9999
2 45151  87.8924 266.0997 0001439  74.0832 286.0455 13.11416983148769
1 45151U 20008W   23031.05458389 -.00000472  00000-0 -13677-2 0  9998
2 45151  87.8924 266.0694 0001430  74.1518 285.9768 13.11416906148788
1 45151U 20008W   23031.89384943 -.00000381  00000-0 -11112-2 0  9995
2 45151  87.8921 265.9026 0001423  74.8504 285.2781 13.11416259148897
